{"type": "FeatureCollection", "features": [ {"type": "Feature", "properties": {"norad_id": 67010, "name": "STARLINK-36189", "group": "last-30-days", "lat": -52.3883250715259, "lon": 132.05616236461128, "alt_km": 355.48507120756494, "timestamp": "2025-12-26T13:39:17.667704+00:00", "meta": {"OBJECT_NAME": "STARLINK-36189", "OBJECT_ID": "2025-293H", "EPOCH": "2025-12-26T06:00:02.999808", "MEAN_MOTION": 15.73904194, "ECCENTRICITY": 0.0003364, "INCLINATION": 69.9953, "RA_OF_ASC_NODE": 284.7349, "ARG_OF_PERICENTER": 268.4651, "MEAN_ANOMALY": 323.1406, "EPHEMERIS_TYPE": 0, "CLASSIFICATION_TYPE": "U", "NORAD_CAT_ID": 67010, "ELEMENT_SET_NO": 999, "REV_AT_EPOCH": 234, "BSTAR": -0.012794464, "MEAN_MOTION_DOT": -0.01619334, "MEAN_MOTION_DDOT": 0}, "tle": {"line1": "1 67010U 25293H   25360.25003472 -.01619334  00000+0 -12794-1 0  9996", "line2": "2 67010  69.9953 284.7349 0003364 268.4651 323.1406 15.73904194  2343"}}, "geometry": {"type": "Point", "coordinates": [132.05616236461128, -52.3883250715259]}}, {"type": "Feature", "properties": {"norad_id": 67011, "name": "STARLINK-36167", "group": "last-30-days", "lat": -50.37456119754655, "lon": 129.94046272037636, "alt_km": 355.2631346000526, "timestamp": "2025-12-26T13:39:17.667714+00:00", "meta": {"OBJECT_NAME": "STARLINK-36167", "OBJECT_ID": "2025-293J", "EPOCH": "2025-12-26T06:00:02.999808", "MEAN_MOTION": 15.73932251, "ECCENTRICITY": 0.00035974, "INCLINATION": 69.9949, "RA_OF_ASC_NODE": 284.7369, "ARG_OF_PERICENTER": 267.7358, "MEAN_ANOMALY": 321.4301, "EPHEMERIS_TYPE": 0, "CLASSIFICATION_TYPE": "U", "NORAD_CAT_ID": 67011, "ELEMENT_SET_NO": 999, "REV_AT_EPOCH": 228, "BSTAR": -0.012836839, "MEAN_MOTION_DOT": -0.01626067, "MEAN_MOTION_DDOT": 0}, "tle": {"line1": "1 67011U 25293J   25360.25003472 -.01626067  00000+0 -12837-1 0  9996", "line2": "2 67011  69.9949 284.7369 0003597 267.7358 321.4301 15.73932251  2288"}}, "geometry": {"type": "Point", "coordinates": [129.94046272037636, -50.37456119754655]}}, {"type": "Feature", "properties": {"norad_id": 67012, "name": "STARLINK-36175", "group": "last-30-days", "lat": -54.13033862033851, "lon": 134.08720550984773, "alt_km": 355.4340381745469, "timestamp": "2025-12-26T13:39:17.667723+00:00", "meta": {"OBJECT_NAME": "STARLINK-36175", "OBJECT_ID": "2025-293K", "EPOCH": "2025-12-26T06:00:02.999808", "MEAN_MOTION": 15.73900116, "ECCENTRICITY": 0.00036022, "INCLINATION": 69.995, "RA_OF_ASC_NODE": 284.7317, "ARG_OF_PERICENTER": 271.2051, "MEAN_ANOMALY": 322.5401, "EPHEMERIS_TYPE": 0, "CLASSIFICATION_TYPE": "U", "NORAD_CAT_ID": 67012, "ELEMENT_SET_NO": 999, "REV_AT_EPOCH": 228, "BSTAR": -0.012879434, "MEAN_MOTION_DOT": -0.01628851, "MEAN_MOTION_DDOT": 0}, "tle": {"line1": "1 67012U 25293K   25360.25003472 -.01628851  00000+0 -12879-1 0  9996", "line2": "2 67012  69.9950 284.7317 0003602 271.2051 322.5401 15.73900116  2289"}}, "geometry": {"type": "Point", "coordinates": [134.08720550984773, -54.13033862033851]}}, {"type": "Feature", "properties": {"norad_id": 67013, "name": "STARLINK-35856", "group": "last-30-days", "lat": -56.04178499507196, "lon": 136.57923479211215, "alt_km": 355.45062032466467, "timestamp": "2025-12-26T13:39:17.667733+00:00", "meta": {"OBJECT_NAME": "STARLINK-35856", "OBJECT_ID": "2025-293L", "EPOCH": "2025-12-26T06:00:02.999808", "MEAN_MOTION": 15.7387401, "ECCENTRICITY": 0.00035695, "INCLINATION": 69.995, "RA_OF_ASC_NODE": 284.7284, "ARG_OF_PERICENTER": 268.0428, "MEAN_ANOMALY": 328.1175, "EPHEMERIS_TYPE": 0, "CLASSIFICATION_TYPE": "U", "NORAD_CAT_ID": 67013, "ELEMENT_SET_NO": 999, "REV_AT_EPOCH": 228, "BSTAR": -0.012863311, "MEAN_MOTION_DOT": -0.0162537, "MEAN_MOTION_DDOT": 0}, "tle": {"line1": "1 67013U 25293L   25360.25003472 -.01625370  00000+0 -12863-1 0  9993", "line2": "2 67013  69.9950 284.7284 0003569 268.0428 328.1175 15.73874010  2280"}}, "geometry": {"type": "Point", "coordinates": [136.57923479211215, -56.04178499507196]}}, {"type": "Feature", "properties": {"norad_id": 67014, "name": "STARLINK-36207", "group": "last-30-days", "lat": -57.821582140908035, "lon": 139.20726174913366, "alt_km": 355.4696246569929, "timestamp": "2025-12-26T13:39:17.667743+00:00", "meta": {"OBJECT_NAME": "STARLINK-36207", "OBJECT_ID": "2025-293M", "EPOCH": "2025-12-26T06:00:02.999808", "MEAN_MOTION": 15.73854981, "ECCENTRICITY": 0.00036827, "INCLINATION": 69.9955, "RA_OF_ASC_NODE": 284.7263, "ARG_OF_PERICENTER": 270.369, "MEAN_ANOMALY": 328.1038, "EPHEMERIS_TYPE": 0, "CLASSIFICATION_TYPE": "U", "NORAD_CAT_ID": 67014, "ELEMENT_SET_NO": 999, "REV_AT_EPOCH": 234, "BSTAR": -0.01286194, "MEAN_MOTION_DOT": -0.01624121, "MEAN_MOTION_DDOT": 0}, "tle": {"line1": "1 67014U 25293M   25360.25003472 -.01624121  00000+0 -12862-1 0  9996", "line2": "2 67014  69.9955 284.7263 0003682 270.3690 328.1038 15.73854981  2346"}}, "geometry": {"type": "Point", "coordinates": [139.20726174913366, -57.821582140908035]}}, {"type": "Feature", "properties": {"norad_id": 67015, "name": "STARLINK-36093", "group": "last-30-days", "lat": -61.16408510835587, "lon": 145.25203535186847, "alt_km": 355.59314830097446, "timestamp": "2025-12-26T13:39:17.667757+00:00", "meta": {"OBJECT_NAME": "STARLINK-36093", "OBJECT_ID": "2025-293N", "EPOCH": "2025-12-26T06:00:02.999808", "MEAN_MOTION": 15.7381966, "ECCENTRICITY": 0.00035571, "INCLINATION": 69.9951, "RA_OF_ASC_NODE": 284.7204, "ARG_OF_PERICENTER": 267.7149, "MEAN_ANOMALY": 335.3385, "EPHEMERIS_TYPE": 0, "CLASSIFICATION_TYPE": "U", "NORAD_CAT_ID": 67015, "ELEMENT_SET_NO": 999, "REV_AT_EPOCH": 228, "BSTAR": -0.012883952, "MEAN_MOTION_DOT": -0.01624272, "MEAN_MOTION_DDOT": 0}, "tle": {"line1": "1 67015U 25293N   25360.25003472 -.01624272  00000+0 -12884-1 0  9998", "line2": "2 67015  69.9951 284.7204 0003557 267.7149 335.3385 15.73819660  2281"}}, "geometry": {"type": "Point", "coordinates": [145.25203535186847, -61.16408510835587]}}, {"type": "Feature", "properties": {"norad_id": 67016, "name": "STARLINK-36120", "group": "last-30-days", "lat": -59.46675405802848, "lon": 141.9704672674889, "alt_km": 355.5335959412214, "timestamp": "2025-12-26T13:39:17.667767+00:00", "meta": {"OBJECT_NAME": "STARLINK-36120", "OBJECT_ID": "2025-293P", "EPOCH": "2025-12-26T06:00:02.999808", "MEAN_MOTION": 15.73844131, "ECCENTRICITY": 0.00035912, "INCLINATION": 69.9951, "RA_OF_ASC_NODE": 284.7233, "ARG_OF_PERICENTER": 268.8241, "MEAN_ANOMALY": 331.8504, "EPHEMERIS_TYPE": 0, "CLASSIFICATION_TYPE": "U", "NORAD_CAT_ID": 67016, "ELEMENT_SET_NO": 999, "REV_AT_EPOCH": 228, "BSTAR": -0.012909908, "MEAN_MOTION_DOT": -0.0162875, "MEAN_MOTION_DDOT": 0}, "tle": {"line1": "1 67016U 25293P   25360.25003472 -.01628750  00000+0 -12910-1 0  9994", "line2": "2 67016  69.9951 284.7233 0003591 268.8241 331.8504 15.73844131  2282"}}, "geometry": {"type": "Point", "coordinates": [141.9704672674889, -59.46675405802848]}}, {"type": "Feature", "properties": {"norad_id": 67017, "name": "STARLINK-35498", "group": "last-30-days", "lat": -62.70709183546976, "lon": 148.73504814526757, "alt_km": 355.575521644264, "timestamp": "2025-12-26T13:39:17.667778+00:00", "meta": {"OBJECT_NAME": "STARLINK-35498", "OBJECT_ID": "2025-293Q", "EPOCH": "2025-12-26T06:00:02.999808", "MEAN_MOTION": 15.73805833, "ECCENTRICITY": 0.00036747, "INCLINATION": 69.9948, "RA_OF_ASC_NODE": 284.7167, "ARG_OF_PERICENTER": 269.006, "MEAN_ANOMALY": 336.3211, "EPHEMERIS_TYPE": 0, "CLASSIFICATION_TYPE": "U", "NORAD_CAT_ID": 67017, "ELEMENT_SET_NO": 999, "REV_AT_EPOCH": 247, "BSTAR": -0.012925571, "MEAN_MOTION_DOT": -0.01628176, "MEAN_MOTION_DDOT": 0}, "tle": {"line1": "1 67017U 25293Q   25360.25003472 -.01628176  00000+0 -12926-1 0  9994", "line2": "2 67017  69.9948 284.7167 0003674 269.0060 336.3211 15.73805833  2471"}}, "geometry": {"type": "Point", "coordinates": [148.73504814526757, -62.70709183546976]}}, {"type": "Feature", "properties": {"norad_id": 67018, "name": "STARLINK-36106", "group": "last-30-days", "lat": -64.15978493964627, "lon": 152.60485366809212, "alt_km": 355.6518283144633, "timestamp": "2025-12-26T13:39:17.667789+00:00", "meta": {"OBJECT_NAME": "STARLINK-36106", "OBJECT_ID": "2025-293R", "EPOCH": "2025-12-26T06:00:02.999808", "MEAN_MOTION": 15.73785079, "ECCENTRICITY": 0.00036531, "INCLINATION": 69.9948, "RA_OF_ASC_NODE": 284.7136, "ARG_OF_PERICENTER": 270.9571, "MEAN_ANOMALY": 336.6558, "EPHEMERIS_TYPE": 0, "CLASSIFICATION_TYPE": "U", "NORAD_CAT_ID": 67018, "ELEMENT_SET_NO": 999, "REV_AT_EPOCH": 239, "BSTAR": -0.012884158, "MEAN_MOTION_DOT": -0.01622214, "MEAN_MOTION_DDOT": 0}, "tle": {"line1": "1 67018U 25293R   25360.25003472 -.01622214  00000+0 -12884-1 0  9995", "line2": "2 67018  69.9948 284.7136 0003653 270.9571 336.6558 15.73785079  2390"}}, "geometry": {"type": "Point", "coordinates": [152.60485366809212, -64.15978493964627]}}, {"type": "Feature", "properties": {"norad_id": 67019, "name": "STARLINK-35688", "group": "last-30-days", "lat": -65.44961897476638, "lon": 156.71367884190138, "alt_km": 355.68765945836003, "timestamp": "2025-12-26T13:39:17.667799+00:00", "meta": {"OBJECT_NAME": "STARLINK-35688", "OBJECT_ID": "2025-293S", "EPOCH": "2025-12-26T06:00:02.999808", "MEAN_MOTION": 15.73774719, "ECCENTRICITY": 0.00036058, "INCLINATION": 69.9946, "RA_OF_ASC_NODE": 284.7112, "ARG_OF_PERICENTER": 268.3433, "MEAN_ANOMALY": 341.4584, "EPHEMERIS_TYPE": 0, "CLASSIFICATION_TYPE": "U", "NORAD_CAT_ID": 67019, "ELEMENT_SET_NO": 999, "REV_AT_EPOCH": 247, "BSTAR": -0.012934193, "MEAN_MOTION_DOT": -0.0162713, "MEAN_MOTION_DDOT": 0}, "tle": {"line1": "1 67019U 25293S   25360.25003472 -.01627130  00000+0 -12934-1 0  9994", "line2": "2 67019  69.9946 284.7112 0003605 268.3433 341.4584 15.73774719  2479"}}, "geometry": {"type": "Point", "coordinates": [156.71367884190138, -65.44961897476638]}}]}